norad_id,name,regime,epoch,line1,line2,inclination,eccentricity,mean_motion,raan,arg_pericenter,mean_anomaly
33401,IBEX,HAO,16202.82208684,1 33401U 08051A   16202.82208684 -.00001282  00000-0  00000+0 0  1708\,2 33401  43.0113  22.8566 5062550 164.7567 357.7345  0.11190238  3274,43.0113,0.506255,0.11190238,22.8566,164.7567,357.7345
33401,IBEX,HAO,16211.88322836,1 33401U 08051A   16211.88322836 -.00001435 +00000-0 +00000-0 0 0001\,2 33401 045.5900 020.8656 4801248 174.7777 357.2327 00.1145010800344,45.59,0.4801248,0.11450108,20.8656,174.7777,357.2327
33401,IBEX,HAO,16220.74780208,1 33401U 08051A   16220.74780208 -.00001786  00000-0  00000+0 0  1727\,2 33401  45.8195  20.7640 5032288 175.3204 358.6172  0.10986422  3292,45.8195,0.5032288,0.10986422,20.764,175.3204,358.6172
33401,IBEX,HAO,16229.51650067,1 33401U 08051A   16229.51650067 -.00001500 +00000-0 +00000-0 0 0173\,2 33401 045.8582 020.6126 4823809 175.6518 357.0241 00.1146344700330,45.8582,0.4823809,0.11463447,20.6126,175.6518,357.0241
33401,IBEX,HAO,16238.51727490,1 33401U 08051A   16238.51727490 -.00001704  00000-0  00000+0 0  1747\,2 33401  48.4894  19.2050 5302341 183.1092 357.0415  0.11884002  3315,48.4894,0.5302341,0.11884002,19.205,183.1092,357.0415
33401,IBEX,HAO,16246.84119733,1 33401U 08051A   16246.84119733 -.00002509  00000-0  00000+0 0  1752\,2 33401  48.7054  19.1791 5444915 183.3502 356.7380  0.11636102  3323,48.7054,0.5444915,0.11636102,19.1791,183.3502,356.738
33401,IBEX,HAO,16255.18902280,1 33401U 08051A   16255.18902280 -.00001902  00000-0  00000+0 0  1763\,2 33401  48.7871  18.9718 5317841 183.9465 357.2604  0.12050290  3332,48.7871,0.5317841,0.1205029,18.9718,183.9465,357.2604
33401,IBEX,HAO,16263.45106161,1 33401U 08051A   16263.45106161 -.00002380  00000-0  00000+0 0  1778\,2 33401  49.1755  18.7235 5574034 183.9405 358.6695  0.11605673  3349,49.1755,0.5574034,0.11605673,18.7235,183.9405,358.6695
33401,IBEX,HAO,16271.58291533,1 33401U 08051A   16271.58291533 -.00003239  00000-0  00000+0 0  1537\,2 33401  49.3750  18.6560 5498930 183.4913 358.1914  0.12047939  3351,49.375,0.549893,0.12047939,18.656,183.4913,358.1914
33401,IBEX,HAO,16288.02410552,1 33401U 08051A   16288.02410552 -.00002696  00000-0  00000+0 0  1545\,2 33401  49.2325  18.3346 5509994 184.0119   0.3507  0.11668986  3371,49.2325,0.5509994,0.11668986,18.3346,184.0119,0.3507
33401,IBEX,HAO,16304.98364590,1 33401U 08051A   16304.98364590 -.00002502  00000-0  00000+0 0  1556\,2 33401  48.4207  17.3718 5230610 185.7475   0.1719  0.11180516  3395,48.4207,0.523061,0.11180516,17.3718,185.7475,0.1719
33401,IBEX,HAO,16313.56720107,1 33401U 08051A   16313.56720107 -.00002109  00000-0  00000+0 0  1564\,2 33401  48.3718  17.2804 5067068 186.0889   1.7879  0.11536799  3408,48.3718,0.5067068,0.11536799,17.2804,186.0889,1.7879
33401,IBEX,HAO,16323.04273587,1 33401U 08051A   16323.04273587 -.00002390  00000-0  00000+0 0  1576\,2 33401  46.4013  13.9828 4726169 200.0742   1.8249  0.11280974  3416,46.4013,0.4726169,0.11280974,13.9828,200.0742,1.8249
33401,IBEX,HAO,16331.97144940,1 33401U 08051A   16331.97144940 -.00002206  00000-0  00000+0 0  1584\,2 33401  46.4008  13.7782 4947456 200.6375   3.2834  0.10739887  3427,46.4008,0.4947456,0.10739887,13.7782,200.6375,3.2834
33401,IBEX,HAO,16340.82713322,1 33401U 08051A   16340.82713322 -.00001587  00000-0  00000+0 0  1608\,2 33401  46.3131  13.6335 4726500 201.2194   1.6370  0.11259557  3437,46.3131,0.47265,0.11259557,13.6335,201.2194,1.637
33401,IBEX,HAO,16350.05214928,1 33401U 08051A   16350.05214928 -.00001777  00000-0  00000+0 0  1614\,2 33401  45.1979  10.9417 5323119 210.5698   2.3558  0.11807751  3449,45.1979,0.5323119,0.11807751,10.9417,210.5698,2.3558
33401,IBEX,HAO,16366.98716755,1 33401U 08051A   16366.98716755 -.00000955  00000-0  00000+0 0  1626\,2 33401  45.1194  10.6173 5318853 211.4619   0.4178  0.11983996  3461,45.1194,0.5318853,0.11983996,10.6173,211.4619,0.4178
33401,IBEX,HAO,17009.40552408,1 33401U 08051A   17009.40552408 -.00000821  00000-0  00000+0 0  1634\,2 33401  45.4916  10.2717 5723649 211.6507   2.6456  0.11972837  3473,45.4916,0.5723649,0.11972837,10.2717,211.6507,2.6456
33401,IBEX,HAO,17017.55928020,1 33401U 08051A   17017.55928020 -.00001424 +00000-0 +00000-0 0 0001\,2 33401 045.5365 010.2708 5776842 211.3282 000.9754 00.1207871200364,45.5365,0.5776842,0.12078712,10.2708,211.3282,0.9754
33401,IBEX,HAO,17034.02156099,1 33401U 08051A   17034.02156099 -.00000770  00000-0  00000+0 0  1651\,2 33401  45.4689   9.8499 5818193 211.4766   4.0819  0.11933739  3506,45.4689,0.5818193,0.11933739,9.8499,211.4766,4.0819
33401,IBEX,HAO,17037.00888130,1 33401U 08051A   17037.00888130 -.00003176  00000-0  00000+0 0  1664\,2 33401  21.1369  94.2499 6223006  22.0167   3.1934  0.10492071  3512,21.1369,0.6223006,0.10492071,94.2499,22.0167,3.1934
33401,IBEX,HAO,17046.30122294,1 33401U 08051A   17046.30122294 -.00002781  00000-0  00000+0 0  1671\,2 33401  21.4241  93.8181 6101883  23.0685   2.3234  0.10818784  3529,21.4241,0.6101883,0.10818784,93.8181,23.0685,2.3234
33401,IBEX,HAO,17055.58493623,1 33401U 08051A   17055.58493623 -.00001770 +00000-0 +00000-0 0 0176\,2 33401 022.0805 094.0605 6400989 022.7192 007.3328 00.1023423700352,22.0805,0.6400989,0.10234237,94.0605,22.7192,7.3328
33401,IBEX,HAO,17073.54943748,1 33401U 08051A   17073.54943748 -.00001627  00000-0  00000+0 0  1681\,2 33401  22.6910  94.0589 6183628  23.0815 358.3722  0.11173679  3559,22.691,0.6183628,0.11173679,94.0589,23.0815,358.3722
33401,IBEX,HAO,17082.68669488,1 33401U 08051A   17082.68669488 -.00000576 +00000-0 +00000-0 0 0169\,2 33401 023.4292 094.3807 6472737 022.4834 004.0069 00.1063212300356,23.4292,0.6472737,0.10632123,94.3807,22.4834,4.0069
33401,IBEX,HAO,17091.52942918,1 33401U 08051A   17091.52942918 -.00000986 +00000-0 +00000-0 0 0170\,2 33401 023.7555 094.6785 6379008 021.7883 001.5979 00.1118094500357,23.7555,0.6379008,0.11180945,94.6785,21.7883,1.5979
33401,IBEX,HAO,17109.41160236,1 33401U 08051A   17109.41160236 -.00000353 +00000-0 +00000-0 0 0171\,2 33401 024.6125 094.6282 6551269 022.0671 000.1802 00.1077524400359,24.6125,0.6551269,0.10775244,94.6282,22.0671,0.1802
33401,IBEX,HAO,17118.19398348,1 33401U 08051A   17118.19398348 -.00000967 +00000-0 +00000-0 0 0172\,2 33401 024.8196 094.6754 6402848 021.4922 358.2466 00.1138478000360,24.8196,0.6402848,0.1138478,94.6754,21.4922,358.2466
33401,IBEX,HAO,17127.17404410,1 33401U 08051A   17127.17404410 -.00001266 +00000-0 +00000-0 0 0173\,2 33401 025.0680 094.3500 6376510 022.4323 357.5967 00.1139142400361,25.068,0.637651,0.11391424,94.35,22.4323,357.5967
33401,IBEX,HAO,17136.04494111,1 33401U 08051A   17136.04494111 -.00001278 +00000-0 +00000-0 0 0174\,2 33401 025.4779 094.5383 6603944 022.0809 357.5322 00.1064083200362,25.4779,0.6603944,0.10640832,94.5383,22.0809,357.5322
33401,IBEX,HAO,17144.87446521,1 33401U 08051A   17144.87446521 -.00001793 +00000-0 +00000-0 0 0175\,2 33401 025.5633 094.2719 6379406 021.7400 356.8635 00.1133920000363,25.5633,0.6379406,0.113392,94.2719,21.74,356.8635
33401,IBEX,HAO,17153.89231067,1 33401U 08051A   17153.89231067 -.00002298 +00000-0 +00000-0 0 0177\,2 33401 025.8509 093.9072 6401024 022.7492 355.9546 00.1114905000362,25.8509,0.6401024,0.1114905,93.9072,22.7492,355.9546
33401,IBEX,HAO,17162.83686537,1 33401U 08051A   17162.83686537 -.00002739 +00000-0 +00000-0 0 0178\,2 33401 026.0179 093.9503 6586277 022.5731 356.6008 00.1031326500363,26.0179,0.6586277,0.10313265,93.9503,22.5731,356.6008
33401,IBEX,HAO,17218.24856028,1 33401U 08051A   17218.24856028 -.00002000 +00000-0 +00000-0 0 0183\,2 33401 030.2157 094.3610 7460229 003.0421 007.6340 00.1011168900369,30.2157,0.7460229,0.10111689,94.361,3.0421,7.634
33401,IBEX,HAO,22019.38888889,1 33401U 08051A   22019.38888889 -.00001658  00000-0  00000+0 0  1867\,2 33401  44.9273  44.3145 5093472  45.4837   3.9013  0.10593383  5344,44.9273,0.5093472,0.10593383,44.3145,45.4837,3.9013
33401,IBEX,HAO,23336.06778922,1 33401U 08051A   23336.06778922 -.00003555  00000-0  00000-0 0    16\,2 33401  49.4296  29.6481 6099725  40.6362 355.4307  0.10759259   472,49.4296,0.6099725,0.10759259,29.6481,40.6362,355.4307
33401,IBEX,HAO,24164.27430556,1 33401U 08051A   24164.27430556 -.00003805  00000-0  00000-0 0    15\,2 33401  50.1566  25.5374 6611084  41.6955  57.3231  0.11224328   697,50.1566,0.6611084,0.11224328,25.5374,41.6955,57.3231
33401,IBEX,HAO,25206.97184344,1 33401U 08051A   25206.97184344 -.00002141  00000-0  00000-0 0    13,2 33401  46.2961  10.9471 7278850  50.1397   2.4308  0.10949703  5381,46.2961,0.727885,0.10949703,10.9471,50.1397,2.4308
